CCSDS_OMM_VERS = 2.0
CREATION_DATE  = 
ORIGINATOR     = 

OBJECT_NAME    = STARLINK-36726
OBJECT_ID      = 2026-036X
CENTER_NAME    = EARTH
REF_FRAME      = TEME
TIME_SYSTEM    = UTC
MEAN_ELEMENT_THEORY = SGP/SGP4

EPOCH          = 2026-03-08T13:25:59.545344
MEAN_MOTION    = 15.82131814
ECCENTRICITY   = .00018423
INCLINATION    = 42.9983
RA_OF_ASC_NODE = 256.5085
ARG_OF_PERICENTER = 245.9931
MEAN_ANOMALY   = 114.0748

EPHEMERIS_TYPE = 0
CLASSIFICATION_TYPE = U
NORAD_CAT_ID   = 67925
ELEMENT_SET_NO = 999
REV_AT_EPOCH   = 349
BSTAR          = .13040788E-2
MEAN_MOTION_DOT = .284825E-2
MEAN_MOTION_DDOT = 0

CCSDS_OMM_VERS = 2.0
CREATION_DATE  = 
ORIGINATOR     = 

OBJECT_NAME    = STARLINK-36758
OBJECT_ID      = 2026-036Y
CENTER_NAME    = EARTH
REF_FRAME      = TEME
TIME_SYSTEM    = UTC
MEAN_ELEMENT_THEORY = SGP/SGP4

EPOCH          = 2026-03-08T13:24:54.930240
MEAN_MOTION    = 15.82058950
ECCENTRICITY   = .00019627
INCLINATION    = 42.9987
RA_OF_ASC_NODE = 256.5014
ARG_OF_PERICENTER = 233.9897
MEAN_ANOMALY   = 126.0793

EPHEMERIS_TYPE = 0
CLASSIFICATION_TYPE = U
NORAD_CAT_ID   = 67926
ELEMENT_SET_NO = 999
REV_AT_EPOCH   = 349
BSTAR          = .14052382E-2
MEAN_MOTION_DOT = .306701E-2
MEAN_MOTION_DDOT = 0

CCSDS_OMM_VERS = 2.0
CREATION_DATE  = 
ORIGINATOR     = 

OBJECT_NAME    = STARLINK-36728
OBJECT_ID      = 2026-036Z
CENTER_NAME    = EARTH
REF_FRAME      = TEME
TIME_SYSTEM    = UTC
MEAN_ELEMENT_THEORY = SGP/SGP4

EPOCH          = 2026-03-08T13:22:43.709376
MEAN_MOTION    = 15.82213901
ECCENTRICITY   = .00019112
INCLINATION    = 42.9987
RA_OF_ASC_NODE = 256.4889
ARG_OF_PERICENTER = 264.6537
MEAN_ANOMALY   = 95.4117

EPHEMERIS_TYPE = 0
CLASSIFICATION_TYPE = U
NORAD_CAT_ID   = 67927
ELEMENT_SET_NO = 999
REV_AT_EPOCH   = 349
BSTAR          = .18315761E-2
MEAN_MOTION_DOT = .407604E-2
MEAN_MOTION_DDOT = 0

CCSDS_OMM_VERS = 2.0
CREATION_DATE  = 
ORIGINATOR     = 

OBJECT_NAME    = STARLINK-36771
OBJECT_ID      = 2026-036AA
CENTER_NAME    = EARTH
REF_FRAME      = TEME
TIME_SYSTEM    = UTC
MEAN_ELEMENT_THEORY = SGP/SGP4

EPOCH          = 2026-03-08T13:23:50.367840
MEAN_MOTION    = 15.82085380
ECCENTRICITY   = .00019223
INCLINATION    = 42.9989
RA_OF_ASC_NODE = 256.4950
ARG_OF_PERICENTER = 291.2908
MEAN_ANOMALY   = 68.7758

EPHEMERIS_TYPE = 0
CLASSIFICATION_TYPE = U
NORAD_CAT_ID   = 67928
ELEMENT_SET_NO = 999
REV_AT_EPOCH   = 349
BSTAR          = .17527196E-2
MEAN_MOTION_DOT = .386751E-2
MEAN_MOTION_DDOT = 0

CCSDS_OMM_VERS = 2.0
CREATION_DATE  = 
ORIGINATOR     = 

OBJECT_NAME    = STARLINK-36809
OBJECT_ID      = 2026-036AB
CENTER_NAME    = EARTH
REF_FRAME      = TEME
TIME_SYSTEM    = UTC
MEAN_ELEMENT_THEORY = SGP/SGP4

EPOCH          = 2026-03-08T13:21:40.874976
MEAN_MOTION    = 15.82083061
ECCENTRICITY   = .00019214
INCLINATION    = 42.9988
RA_OF_ASC_NODE = 256.4825
ARG_OF_PERICENTER = 280.6471
MEAN_ANOMALY   = 79.4184

EPHEMERIS_TYPE = 0
CLASSIFICATION_TYPE = U
NORAD_CAT_ID   = 67929
ELEMENT_SET_NO = 999
REV_AT_EPOCH   = 349
BSTAR          = .17335142E-2
MEAN_MOTION_DOT = .382265E-2
MEAN_MOTION_DDOT = 0

CCSDS_OMM_VERS = 2.0
CREATION_DATE  = 
ORIGINATOR     = 

OBJECT_NAME    = STARLINK-36865
OBJECT_ID      = 2026-036AC
CENTER_NAME    = EARTH
REF_FRAME      = TEME
TIME_SYSTEM    = UTC
MEAN_ELEMENT_THEORY = SGP/SGP4

EPOCH          = 2026-03-08T13:19:31.441728
MEAN_MOTION    = 15.82067693
ECCENTRICITY   = .00018573
INCLINATION    = 42.9989
RA_OF_ASC_NODE = 256.4698
ARG_OF_PERICENTER = 289.0675
MEAN_ANOMALY   = 70.9995

EPHEMERIS_TYPE = 0
CLASSIFICATION_TYPE = U
NORAD_CAT_ID   = 67930
ELEMENT_SET_NO = 999
REV_AT_EPOCH   = 349
BSTAR          = .13961612E-2
MEAN_MOTION_DOT = .304771E-2
MEAN_MOTION_DDOT = 0

CCSDS_OMM_VERS = 2.0
CREATION_DATE  = 
ORIGINATOR     = 

OBJECT_NAME    = STARLINK-36781
OBJECT_ID      = 2026-036AD
CENTER_NAME    = EARTH
REF_FRAME      = TEME
TIME_SYSTEM    = UTC
MEAN_ELEMENT_THEORY = SGP/SGP4

EPOCH          = 2026-03-08T13:20:34.355616
MEAN_MOTION    = 15.82228460
ECCENTRICITY   = .00017077
INCLINATION    = 42.9989
RA_OF_ASC_NODE = 256.4762
ARG_OF_PERICENTER = 281.4035
MEAN_ANOMALY   = 78.6645

EPHEMERIS_TYPE = 0
CLASSIFICATION_TYPE = U
NORAD_CAT_ID   = 67931
ELEMENT_SET_NO = 999
REV_AT_EPOCH   = 349
BSTAR          = .21581668E-2
MEAN_MOTION_DOT = .485101E-2
MEAN_MOTION_DDOT = 0

CCSDS_OMM_VERS = 2.0
CREATION_DATE  = 
ORIGINATOR     = 

OBJECT_NAME    = STARLINK-36301
OBJECT_ID      = 2026-037A
CENTER_NAME    = EARTH
REF_FRAME      = TEME
TIME_SYSTEM    = UTC
MEAN_ELEMENT_THEORY = SGP/SGP4

EPOCH          = 2026-03-08T14:00:01.999872
MEAN_MOTION    = 15.82273438
ECCENTRICITY   = .00011566
INCLINATION    = 42.9990
RA_OF_ASC_NODE = 205.3609
ARG_OF_PERICENTER = 276.6666
MEAN_ANOMALY   = 166.2211

EPHEMERIS_TYPE = 0
CLASSIFICATION_TYPE = U
NORAD_CAT_ID   = 67932
ELEMENT_SET_NO = 999
REV_AT_EPOCH   = 293
BSTAR          = -.20319971E-2
MEAN_MOTION_DOT = -.413551E-2
MEAN_MOTION_DDOT = 0

CCSDS_OMM_VERS = 2.0
CREATION_DATE  = 
ORIGINATOR     = 

OBJECT_NAME    = STARLINK-36852
OBJECT_ID      = 2026-037B
CENTER_NAME    = EARTH
REF_FRAME      = TEME
TIME_SYSTEM    = UTC
MEAN_ELEMENT_THEORY = SGP/SGP4

EPOCH          = 2026-03-08T14:00:01.999872
MEAN_MOTION    = 15.82515515
ECCENTRICITY   = .0001522
INCLINATION    = 42.9992
RA_OF_ASC_NODE = 205.3504
ARG_OF_PERICENTER = 271.6037
MEAN_ANOMALY   = 175.4123

EPHEMERIS_TYPE = 0
CLASSIFICATION_TYPE = U
NORAD_CAT_ID   = 67933
ELEMENT_SET_NO = 999
REV_AT_EPOCH   = 302
BSTAR          = -.36394374E-2
MEAN_MOTION_DOT = -.72291E-2
MEAN_MOTION_DDOT = 0

CCSDS_OMM_VERS = 2.0
CREATION_DATE  = 
ORIGINATOR     = 

OBJECT_NAME    = STARLINK-36861
OBJECT_ID      = 2026-037C
CENTER_NAME    = EARTH
REF_FRAME      = TEME
TIME_SYSTEM    = UTC
MEAN_ELEMENT_THEORY = SGP/SGP4

EPOCH          = 2026-03-08T14:00:01.999872
MEAN_MOTION    = 15.82631557
ECCENTRICITY   = .0001425
INCLINATION    = 42.9990
RA_OF_ASC_NODE = 205.3402
ARG_OF_PERICENTER = 280.1573
MEAN_ANOMALY   = 171.0333

EPHEMERIS_TYPE = 0
CLASSIFICATION_TYPE = U
NORAD_CAT_ID   = 67934
ELEMENT_SET_NO = 999
REV_AT_EPOCH   = 302
BSTAR          = -.40116698E-2
MEAN_MOTION_DOT = -.794561E-2
MEAN_MOTION_DDOT = 0

CCSDS_OMM_VERS = 2.0
CREATION_DATE  = 
ORIGINATOR     = 

OBJECT_NAME    = STARLINK-36860
OBJECT_ID      = 2026-037D
CENTER_NAME    = EARTH
REF_FRAME      = TEME
TIME_SYSTEM    = UTC
MEAN_ELEMENT_THEORY = SGP/SGP4

EPOCH          = 2026-03-08T14:00:01.999872
MEAN_MOTION    = 15.82791619
ECCENTRICITY   = .00016603
INCLINATION    = 42.9990
RA_OF_ASC_NODE = 205.3300
ARG_OF_PERICENTER = 271.7543
MEAN_ANOMALY   = 183.6072

EPHEMERIS_TYPE = 0
CLASSIFICATION_TYPE = U
NORAD_CAT_ID   = 67935
ELEMENT_SET_NO = 999
REV_AT_EPOCH   = 302
BSTAR          = -.5117575E-2
MEAN_MOTION_DOT = -.997214E-2
MEAN_MOTION_DDOT = 0

CCSDS_OMM_VERS = 2.0
CREATION_DATE  = 
ORIGINATOR     = 

OBJECT_NAME    = STARLINK-36848
OBJECT_ID      = 2026-037E
CENTER_NAME    = EARTH
REF_FRAME      = TEME
TIME_SYSTEM    = UTC
MEAN_ELEMENT_THEORY = SGP/SGP4

EPOCH          = 2026-03-08T14:00:01.999872
MEAN_MOTION    = 15.83114335
ECCENTRICITY   = .00016604
INCLINATION    = 42.9989
RA_OF_ASC_NODE = 205.3084
ARG_OF_PERICENTER = 279.3189
MEAN_ANOMALY   = 184.3204

EPHEMERIS_TYPE = 0
CLASSIFICATION_TYPE = U
NORAD_CAT_ID   = 67936
ELEMENT_SET_NO = 999
REV_AT_EPOCH   = 302
BSTAR          = -.66883192E-2
MEAN_MOTION_DOT = -.1305415E-1
MEAN_MOTION_DDOT = 0

