STARLINK-36726          
1 67925U 26036X   26067.55971696  .00284825  00000+0  13041-2 0  9994
2 67925  42.9983 256.5085 0001842 245.9931 114.0748 15.82131814  3490
STARLINK-36758          
1 67926U 26036Y   26067.55896910  .00306701  00000+0  14052-2 0  9991
2 67926  42.9987 256.5014 0001962 233.9897 126.0793 15.82058950  3490
STARLINK-36728          
1 67927U 26036Z   26067.55745034  .00407604  00000+0  18316-2 0  9993
2 67927  42.9987 256.4889 0001911 264.6537  95.4117 15.82213901  3494
STARLINK-36771          
1 67928U 26036AA  26067.55822185  .00386751  00000+0  17527-2 0  9999
2 67928  42.9989 256.4950 0001922 291.2908  68.7758 15.82085380  3498
STARLINK-36809          
1 67929U 26036AB  26067.55672309  .00382265  00000+0  17335-2 0  9994
2 67929  42.9988 256.4825 0001921 280.6471  79.4184 15.82083061  3491
STARLINK-36865          
1 67930U 26036AC  26067.55522502  .00304771  00000+0  13962-2 0  9993
2 67930  42.9989 256.4698 0001857 289.0675  70.9995 15.82067693  3498
STARLINK-36781          
1 67931U 26036AD  26067.55595319  .00485101  00000+0  21582-2 0  9994
2 67931  42.9989 256.4762 0001707 281.4035  78.6645 15.82228460  3499
STARLINK-36301          
1 67932U 26037A   26067.58335648 -.00413551  00000+0 -20320-2 0  9997
2 67932  42.9990 205.3609 0001156 276.6666 166.2211 15.82273438  2935
STARLINK-36852          
1 67933U 26037B   26067.58335648 -.00722910  00000+0 -36394-2 0  9998
2 67933  42.9992 205.3504 0001522 271.6037 175.4123 15.82515515  3026
STARLINK-36861          
1 67934U 26037C   26067.58335648 -.00794561  00000+0 -40117-2 0  9998
2 67934  42.9990 205.3402 0001425 280.1573 171.0333 15.82631557  3024
STARLINK-36860          
1 67935U 26037D   26067.58335648 -.00997214  00000+0 -51176-2 0  9996
2 67935  42.9990 205.3300 0001660 271.7543 183.6072 15.82791619  3021
STARLINK-36848          
1 67936U 26037E   26067.58335648 -.01305415  00000+0 -66883-2 0  9995
2 67936  42.9989 205.3084 0001660 279.3189 184.3204 15.83114335  3029
